[{"OBJECT_NAME":"STARLINK-32540","OBJECT_ID":"2024-196S","EPOCH":"2026-03-09T22:54:00.662976","MEAN_MOTION":15.30166002,"ECCENTRICITY":0.00012576,"INCLINATION":53.1603,"RA_OF_ASC_NODE":64.2973,"ARG_OF_PERICENTER":82.6412,"MEAN_ANOMALY":277.4732,"EPHEMERIS_TYPE":0,"CLASSIFICATION_TYPE":"U","NORAD_CAT_ID":61723,"ELEMENT_SET_NO":999,"REV_AT_EPOCH":7769,"BSTAR":-5.4880842e-5,"MEAN_MOTION_DOT":-1.982e-5,"MEAN_MOTION_DDOT":0},{"OBJECT_NAME":"TRANSPORTER-1 OBJECT Z","OBJECT_ID":"2021-006Z","EPOCH":"2026-03-09T22:55:57.522432","MEAN_MOTION":15.30965056,"ECCENTRICITY":0.00100878,"INCLINATION":97.2377,"RA_OF_ASC_NODE":113.4736,"ARG_OF_PERICENTER":179.6869,"MEAN_ANOMALY":180.438,"EPHEMERIS_TYPE":0,"CLASSIFICATION_TYPE":"U","NORAD_CAT_ID":47436,"ELEMENT_SET_NO":999,"REV_AT_EPOCH":28420,"BSTAR":0.00024088983,"MEAN_MOTION_DOT":7.143e-5,"MEAN_MOTION_DDOT":0}]
